SARSAT 7 (NOAA 15)      
1 25338U 98030A   23251.07227108  .00000223  00000+0  11052-3 0  9999
2 25338  98.6019 278.6963 0011457  74.2836 285.9607 14.26384511317075
GPS BIIR-08             
1 27663U 03005A   23250.73870914  .00000049  00000+0  00000+0 0  9994
2 27663  55.2445 255.2745 0131962  44.6960 133.6072  2.00565856150984
GPS BIIR-11             
1 28190U 04009A   23250.35188206 -.00000075  00000+0  00000+0 0  9999
2 28190  55.6879 316.3497 0092876 138.8396 276.5612  2.00567256142611
GPS BIIR-13             
1 28474U 04045A   23250.75951499 -.00000114  00000+0  00000+0 0  9994
2 28474  55.4426   5.5555 0162414 282.6380 122.7141  2.00580136138101
SARSAT 10 (NOAA 18)     
1 28654U 05018A   23251.05789135  .00000272  00000+0  16950-3 0  9994
2 28654  98.9043 325.0300 0015030 142.7052 217.5166 14.13000832943278
GPS BIIR-14M            
1 28874U 05038A   23250.27569869 -.00000070  00000+0  00000+0 0  9995
2 28874  55.7392 313.8048 0139616 279.5475 102.4491  2.00575315131503
METEOSAT-9 (MSG-2)      
1 28912U 05049B   23250.81161248  .00000114  00000+0  00000+0 0  9997
2 28912   7.0318  63.1237 0002652 182.8892  78.5741  1.00277168 64888
GOES 13                 
1 29155U 06018A   23251.08025510  .00000025  00000+0  00000+0 0  9996
2 29155   1.7209  90.5809 0004994 120.7320 225.8069  1.00274764 63355
GPS BIIR-16M            
1 29601U 06052A   23250.30155247  .00000049  00000+0  00000+0 0  9991
2 29601  55.2656 254.2513 0083294  79.4012 281.5572  2.00549765123071
GPS BIIR-17M            
1 32260U 07047A   23250.11756151 -.00000041  00000+0  00000+0 0  9994
2 32260  53.4658 122.0254 0151501  70.6951 291.0114  2.00551337116476
GPS BIIR-18M            
1 32384U 07062A   23250.43255104 -.00000071  00000+0  00000+0 0  9998
2 32384  55.8711 314.6201 0024873 150.5226 207.2480  2.00558968115172
SARSAT 12 (NOAA 19)     
1 33591U 09005A   23251.11283279  .00000221  00000+0  14367-3 0  9999
2 33591  99.0926 298.3374 0013958  13.9678 346.1877 14.12816386751654
GOES 14                 
1 35491U 09033A   23251.09007810 -.00000078  00000+0  00000+0 0  9999
2 35491   0.4275 265.8227 0004114 225.6299 139.2955  1.00272365 51993
GOES 15                 
1 36411U 10008A   23251.02055760 -.00000365  00000+0  00000+0 0  9995
2 36411   0.4033 275.2234 0004413 306.5311 253.8018  0.99981782 49477
GPS BIIF-2              
1 37753U 11036A   23250.15798639 -.00000106  00000+0  00000+0 0  9992
2 37753  56.7443  11.3580 0127065  56.3329 254.2602  2.00568602 88931
GSAT0101 (GALILEO-PFM)  
1 37846U 11060A   23249.64308251 -.00000108  00000+0  00000+0 0  9993
2 37846  57.1100   9.2369 0001587  76.2945 283.7262  1.70475929 73821
GSAT0102 (GALILEO-FM2)  
1 37847U 11060B   23250.18631104 -.00000108  00000+0  00000+0 0  9991
2 37847  57.1106   9.2223 0001176 339.6117  40.0679  1.70475357 73841
LUCH 5A                 
1 37951U 11074B   23251.06056832 -.00000058  00000+0  00000+0 0  9993
2 37951   6.1523  89.6293 0004696  65.9900  20.1644  1.00275387 43035
METEOSAT-10 (MSG-3)     
1 38552U 12035B   23250.78134591 -.00000019  00000+0  00000+0 0  9993
2 38552   2.3425  57.4133 0000283  50.2845 160.1586  1.00265236 40692
SARSAT 13 (METOP-B)     
1 38771U 12049A   23251.15331821  .00000150  00000+0  88353-4 0  9995
2 38771  98.6712 309.1117 0001320 104.0800 310.2734 14.21510798569336
GPS BIIF-3              
1 38833U 12053A   23250.20867399 -.00000010  00000+0  00000+0 0  9992
2 38833  53.5128 185.0755 0142161  51.9903 309.2751  2.00567240 79104
GSAT0103 (GALILEO-FM3)  
1 38857U 12055A   23249.09567318 -.00000024  00000+0  00000+0 0  9998
2 38857  55.2824 129.4445 0002775 265.7158  94.3282  1.70473717 67708
GSAT0104 (GALILEO-FM4)  
1 38858U 12055B   23248.47854824 -.00000021  00000+0  00000+0 0  9998
2 38858  55.2825 129.4631 0000269 206.4453 153.6310  1.70473948 67698
GPS BIIF-4              
1 39166U 13023A   23250.56954685 -.00000061  00000+0  00000+0 0  9990
2 39166  55.3541 309.9875 0114265  41.7120 319.2147  2.00564314 75559
INSAT-3D                
1 39216U 13038B   23250.90049212 -.00000168  00000+0  00000+0 0  9999
2 39216   0.0537 281.9926 0001792 295.6522 175.3254  1.00271907 36918
GPS BIIF-5              
1 39533U 14008A   23250.56824532 -.00000007  00000+0  00000+0 0  9999
2 39533  53.5999 190.6189 0067220 215.7454 143.7900  2.00551882 69352
LUCH 5V                 
1 39727U 14023A   23250.87132670 -.00000281  00000+0  00000+0 0  9994
2 39727   2.5823  77.2708 0003661 135.1300 182.6792  1.00270126 34191
GPS BIIF-6              
1 39741U 14026A   23250.35120176 -.00000107  00000+0  00000+0 0  9991
2 39741  56.6969  10.8728 0029080 310.8179  48.9382  2.00556998 68205
GPS BIIF-7              
1 40105U 14045A   23250.43474540 -.00000041  00000+0  00000+0 0  9991
2 40105  54.8135 128.9482 0024968 113.2141 247.1180  2.00577962 66636
GSAT0201 (GALILEO 5)    
1 40128U 14050A   23250.03795509 -.00000089  00000+0  00000+0 0  9991
2 40128  49.9326 314.4591 1608846 140.4798 232.4485  1.85519266 59503
GSAT0202 (GALILEO 6)    
1 40129U 14050B   23250.29733128 -.00000085  00000+0  00000+0 0  9995
2 40129  49.9516 313.5203 1606713 141.3005 231.4006  1.85519998 61678
GPS BIIF-8              
1 40294U 14068A   23250.81209504 -.00000028  00000+0  00000+0 0  9998
2 40294  56.1807  70.3236 0049129  61.9896 298.5520  2.00572047 64887
GLONASS-K 2             
1 40315U 14075A   23250.23124005  .00000063  00000+0  00000+0 0  9996
2 40315  63.6403 225.5586 0019959 211.3130 148.5612  2.13101348 68244
GPS BIIF-9              
1 40534U 15013A   23250.44971550  .00000048  00000+0  00000+0 0  9993
2 40534  53.4635 246.1606 0080499  25.3174 335.0830  2.00554547 61912
GSAT0203 (GALILEO 7)    
1 40544U 15017A   23250.00912571 -.00000108  00000+0  00000+0 0  9996
2 40544  56.9052   9.1996 0003163 226.1111 133.8659  1.70476260 51911
GSAT0204 (GALILEO 8)    
1 40545U 15017B   23249.67617737 -.00000108  00000+0  00000+0 0  9994
2 40545  56.9113   9.2230 0003528 208.9167 151.0670  1.70475749 14955
GPS BIIF-10             
1 40730U 15033A   23251.11002013 -.00000055  00000+0  00000+0 0  9996
2 40730  54.8421 308.5780 0085299  13.9606 346.3367  2.00555119 59698
METEOSAT-11 (MSG-4)     
1 40732U 15034A   23250.78326042  .00000053  00000+0  00000+0 0  9999
2 40732   0.7395  53.2704 0000366 346.5931 238.1463  1.00278928 29857
GSAT0205 (GALILEO 9)    
1 40889U 15045A   23250.61728770  .00000042  00000+0  00000+0 0  9998
2 40889  55.3625 249.6052 0003442 358.4158   1.5928  1.70473445 49735
GSAT0206 (GALILEO 10)   
1 40890U 15045B   23247.31844457  .00000034  00000+0  00000+0 0  9995
2 40890  55.3631 249.6919 0002361 323.6055  36.3796  1.70473376 49704
GPS BIIF-11             
1 41019U 15062A   23250.66399053 -.00000029  00000+0  00000+0 0  9992
2 41019  56.1641  70.1796 0089230 221.0182 138.3515  2.00562321 57502
ELEKTRO-L 2             
1 41105U 15074A   23250.77847418 -.00000128  00000+0  00000+0 0  9996
2 41105   4.1148  82.8478 0002693 139.9965  29.4745  1.00273160 28348
GSAT0209 (GALILEO 12)   
1 41174U 15079A   23250.42310635 -.00000026  00000+0  00000+0 0  9992
2 41174  55.3007 129.1149 0003050 331.4907  28.5668  1.70474040 47497
GSAT0208 (GALILEO 11)   
1 41175U 15079B   23250.05612867 -.00000026  00000+0  00000+0 0  9994
2 41175  55.2989 129.1231 0002585 330.4561  29.6036  1.70473975 47908
GPS BIIF-12             
1 41328U 16007A   23250.25722507 -.00000041  00000+0  00000+0 0  9998
2 41328  55.0176 129.7343 0071397 233.8486 125.5567  2.00575353 55500
GSAT0211 (GALILEO 14)   
1 41549U 16030A   23250.17706740  .00000042  00000+0  00000+0 0  9991
2 41549  55.5090 249.5934 0003960 309.2510  50.7225  1.70473515 45387
GSAT0210 (GALILEO 13)   
1 41550U 16030B   23248.70882852  .00000039  00000+0  00000+0 0  9994
2 41550  55.5090 249.6351 0004212 275.0252  84.9311  1.70473596 45358
INSAT-3DR               
1 41752U 16054A   23250.87202326 -.00000089  00000+0  00000+0 0  9993
2 41752   0.0323  88.1257 0012269 175.4490 111.0388  1.00272174 25654
GSAT0207 (GALILEO 15)   
1 41859U 16069A   23250.13036528 -.00000026  00000+0  00000+0 0  9996
2 41859  54.9635 129.1943 0002913 309.3976  50.6506  1.70473959 42117
GSAT0212 (GALILEO 16)   
1 41860U 16069B   23248.22529093 -.00000020  00000+0  00000+0 0  9993
2 41860  54.9600 129.2439 0002288   0.6676 359.4114  1.70474068 42336
GSAT0213 (GALILEO 17)   
1 41861U 16069C   23249.76452588 -.00000026  00000+0  00000+0 0  9994
2 41861  54.9629 129.2071 0002660 277.5225  82.5216  1.70472855 42226
GSAT0214 (GALILEO 18)   
1 41862U 16069D   23249.91177138 -.00000026  00000+0  00000+0 0  9997
2 41862  54.9616 129.1969 0001758 287.1123  72.9425  1.70472647 42357
GOES 16                 
1 41866U 16071A   23250.55146551 -.00000260  00000+0  00000+0 0  9991
2 41866   0.0782 283.8384 0000816 309.4892 236.3477  1.00271260 24940
GSAT-17                 
1 42815U 17040B   23251.08660775 -.00000269  00000+0  00000+0 0  9990
2 42815   0.0235 247.6908 0003832  12.0687 211.7982  1.00270537 22715
GSAT0215 (GALILEO 19)   
1 43055U 17079A   23249.22726105  .00000041  00000+0  00000+0 0  9999
2 43055  55.4859 249.4456 0003731 269.0299  90.9330  1.70474132 35685
GSAT0216 (GALILEO 20)   
1 43056U 17079B   23246.58625198  .00000032  00000+0  00000+0 0  9996
2 43056  55.4873 249.5184 0005310 274.6738  85.2661  1.70474233 35659
GSAT0217 (GALILEO 21)   
1 43057U 17079C   23250.32612422  .00000042  00000+0  00000+0 0  9991
2 43057  55.4838 249.4142 0004644 286.6111  73.3466  1.70474247 35703
GSAT0218 (GALILEO 22)   
1 43058U 17079D   23249.37300422  .00000041  00000+0  00000+0 0  9998
2 43058  55.4844 249.4380 0005753 271.9733  87.9669  1.70474206 35716
GOES 17                 
1 43226U 18022A   23251.08955727 -.00000103  00000+0  00000+0 0  9999
2 43226   0.0349 318.2658 0001957 208.9293 107.2350  1.00272096 20279
GSAT0221 (GALILEO 25)   
1 43564U 18060A   23249.85933313 -.00000108  00000+0  00000+0 0  9990
2 43564  57.2858   9.1324 0002819 253.2471 106.7251  1.70476117 31877
